ONEWEB-0171             
1 48070U 21025AE  24334.69465560 -.00000326  00000+0 -92655-3 0  9998
2 48070  87.8928  72.5250 0001515 101.7518 258.3781 13.13468170179510
ONEWEB-0172             
1 48071U 21025AF  24333.53136614 -.00000284  00000+0 -81271-3 0  9991
2 48071  87.8933  72.7234 0001509 104.0277 256.1020 13.13469625180253
ONEWEB-0174             
1 48072U 21025AG  24334.73273860  .00000361  00000+0  95244-3 0  9999
2 48072  87.8925  72.4983 0001754 107.0983 253.0338 13.13467366179731
ONEWEB-0175             
1 48073U 21025AH  24334.53276236 -.00000209  00000+0 -60714-3 0  9995
2 48073  87.8933  72.5171 0001635  91.5339 268.5978 13.13466930179367
ONEWEB-0177             
1 48074U 21025AJ  24334.69783383 -.00000267  00000+0 -76484-3 0  9994
2 48074  87.8925  72.4945 0001531 116.0996 244.0291 13.13468663179579
ONEWEB-0178             
1 48075U 21025AK  24334.56307392  .00000190  00000+0  48608-3 0  9993
2 48075  87.8940  72.5507 0001485 109.5254 250.6035 13.13471226179606
ONEWEB-0108             
1 48076U 21025AL  24334.75178942  .00000014  00000+0  34864-5 0  9998
2 48076  87.8959  72.4804 0001874 104.9237 255.2099 13.13467839179558
ONEWEB-0169             
1 48077U 21025AM  24334.70734882 -.00000052  00000+0 -17765-3 0  9998
2 48077  87.8929  72.5031 0001937 103.0655 257.0690 13.13468222178208
